[{"OBJECT_NAME":"NEXTSAT-1","OBJECT_ID":"2018-099BF","EPOCH":"2026-03-09T16:24:07.497504","MEAN_MOTION":15.08057555,"ECCENTRICITY":0.001132,"INCLINATION":97.4203,"RA_OF_ASC_NODE":114.8574,"ARG_OF_PERICENTER":323.961,"MEAN_ANOMALY":36.0854,"EPHEMERIS_TYPE":0,"CLASSIFICATION_TYPE":"U","NORAD_CAT_ID":43811,"ELEMENT_SET_NO":999,"REV_AT_EPOCH":39688,"BSTAR":0.00029857014,"MEAN_MOTION_DOT":4.546e-5,"MEAN_MOTION_DDOT":0},{"OBJECT_NAME":"STARLINK-3517","OBJECT_ID":"2022-016X","EPOCH":"2026-03-09T22:11:12.656256","MEAN_MOTION":15.08830912,"ECCENTRICITY":0.00013307,"INCLINATION":53.2188,"RA_OF_ASC_NODE":318.0698,"ARG_OF_PERICENTER":104.3955,"MEAN_ANOMALY":255.7185,"EPHEMERIS_TYPE":0,"CLASSIFICATION_TYPE":"U","NORAD_CAT_ID":51735,"ELEMENT_SET_NO":999,"REV_AT_EPOCH":22360,"BSTAR":-8.9011013e-5,"MEAN_MOTION_DOT":-1.704e-5,"MEAN_MOTION_DDOT":0}]
